{
  "type": "FeatureCollection",
  "name": "my_route_graph",
  "crs": {
    "type": "name",
    "properties": {
      "name": "urn:ogc:def:crs:EPSG::4326"
    }
  },
  "date_generated": "",
  "features": [
    {
      "type": "Feature",
      "properties": {
        "id": 0,
        "frame": "map"
      },
      "geometry": {
        "type": "Point",
        "coordinates": [
          0.0,
          0.0
        ]
      }
    },
    {
      "type": "Feature",
      "properties": {
        "id": 1,
        "frame": "map"
      },
      "geometry": {
        "type": "Point",
        "coordinates": [
          1.047,
          1.56
        ]
      }
    },
    {
      "type": "Feature",
      "properties": {
        "id": 2,
        "frame": "map"
      },
      "geometry": {
        "type": "Point",
        "coordinates": [
          0.325,
          0.477
        ]
      }
    },
    {
      "type": "Feature",
      "properties": {
        "id": 3,
        "frame": "map"
      },
      "geometry": {
        "type": "Point",
        "coordinates": [
          -2.13,
          0.534
        ]
      }
    },
    {
      "type": "Feature",
      "properties": {
        "id": 4,
        "frame": "map"
      },
      "geometry": {
        "type": "Point",
        "coordinates": [
          -1.149,
          1.992
        ]
      }
    },
    {
      "type": "Feature",
      "properties": {
        "id": 5,
        "frame": "map"
      },
      "geometry": {
        "type": "Point",
        "coordinates": [
          -1.382,
          0.869
        ]
      }
    },
    {
      "type": "Feature",
      "properties": {
        "id": 6,
        "frame": "map"
      },
      "geometry": {
        "type": "Point",
        "coordinates": [
          0.058,
          2.575
        ]
      }
    },
    {
      "type": "Feature",
      "properties": {
        "id": 7,
        "frame": "map"
      },
      "geometry": {
        "type": "Point",
        "coordinates": [
          2.619,
          0.042
        ]
      }
    },
    {
      "type": "Feature",
      "properties": {
        "id": 8,
        "startid": 0,
        "endid": 2
      },
      "geometry": {
        "type": "MultiLineString",
        "coordinates": [
          [
            [
              0.0,
              0.0
            ],
            [
              0.325,
              0.477
            ]
          ]
        ]
      }
    },
    {
      "type": "Feature",
      "properties": {
        "id": 9,
        "startid": 2,
        "endid": 1
      },
      "geometry": {
        "type": "MultiLineString",
        "coordinates": [
          [
            [
              0.325,
              0.477
            ],
            [
              1.047,
              1.56
            ]
          ]
        ]
      }
    },
    {
      "type": "Feature",
      "properties": {
        "id": 10,
        "startid": 6,
        "endid": 4
      },
      "geometry": {
        "type": "MultiLineString",
        "coordinates": [
          [
            [
              0.058,
              2.575
            ],
            [
              -1.149,
              1.992
            ]
          ]
        ]
      }
    },
    {
      "type": "Feature",
      "properties": {
        "id": 11,
        "startid": 1,
        "endid": 6
      },
      "geometry": {
        "type": "MultiLineString",
        "coordinates": [
          [
            [
              1.047,
              1.56
            ],
            [
              0.058,
              2.575
            ]
          ]
        ]
      }
    },
    {
      "type": "Feature",
      "properties": {
        "id": 12,
        "startid": 4,
        "endid": 5
      },
      "geometry": {
        "type": "MultiLineString",
        "coordinates": [
          [
            [
              -1.149,
              1.992
            ],
            [
              -1.382,
              0.869
            ]
          ]
        ]
      }
    },
    {
      "type": "Feature",
      "properties": {
        "id": 13,
        "startid": 5,
        "endid": 3
      },
      "geometry": {
        "type": "MultiLineString",
        "coordinates": [
          [
            [
              -1.382,
              0.869
            ],
            [
              -2.13,
              0.534
            ]
          ]
        ]
      }
    },
    {
      "type": "Feature",
      "properties": {
        "id": 14,
        "startid": 3,
        "endid": 2
      },
      "geometry": {
        "type": "MultiLineString",
        "coordinates": [
          [
            [
              -2.13,
              0.534
            ],
            [
              0.325,
              0.477
            ]
          ]
        ]
      }
    },
    {
      "type": "Feature",
      "properties": {
        "id": 15,
        "startid": 2,
        "endid": 7
      },
      "geometry": {
        "type": "MultiLineString",
        "coordinates": [
          [
            [
              0.325,
              0.477
            ],
            [
              2.619,
              0.042
            ]
          ]
        ]
      }
    }
  ]
}